ORBCOMM FM24 [-]        
1 25478U 98053D   23323.78860390  .00001037  00000+0  41079-3 0  9999
2 25478  45.0077 109.9602 0002025 204.7470 155.3280 14.34902818314711
ORBCOMM FM25 [-]        
1 25479U 98053E   23323.68326217  .00001109  00000+0  43589-3 0  9992
2 25479  45.0069 108.6922 0004258 232.5778 127.4682 14.34887467314992
ORBCOMM FM26 [-]        
1 25480U 98053F   23323.69923160  .00000930  00000+0  37693-3 0  9995
2 25480  45.0063 102.0808 0005950 257.8750 102.1430 14.34438979314945
ORBCOMM FM27 [+]        
1 25481U 98053G   23323.66866371  .00001050  00000+0  41583-3 0  9990
2 25481  45.0052 109.0190 0000825 162.0004 198.0872 14.34859477314922
ORBCOMM FM28 [-]        
1 25482U 98053H   23323.91972865  .00000845  00000+0  34064-3 0  9992
2 25482  45.0075  46.9130 0004860 276.3579  83.6715 14.35350716315626
ORBCOMM FM30 [-]        
1 25980U 99065A   23323.32958107  .00000975  00000+0  39159-3 0  9991
2 25980  45.0329 289.1862 0007055 353.1342   6.9407 14.34573492251683
ORBCOMM FM31 [-]        
1 25981U 99065B   23323.92330683  .00000729  00000+0  30544-3 0  9997
2 25981  45.0242 280.2186 0003769   5.4971 354.5917 14.34596255251323
ORBCOMM FM32 [+]        
1 25982U 99065C   23323.64065088  .00000869  00000+0  36181-3 0  9999
2 25982  45.0172 294.0879 0005690  14.2503 345.8503 14.33540384251934
